{"type": "FeatureCollection", "features": [{"type": "Feature", "properties": {"norad_id": 25590, "name": "COSMOS 2361", "group": "musson", "lat": 81.86888744146326, "lon": 50.453190393225256, "alt_km": 1000.9346960256998, "timestamp": "2025-12-04T10:51:50.375223+00:00", "meta": {"OBJECT_NAME": "COSMOS 2361", "OBJECT_ID": "1998-076A", "EPOCH": "2025-12-04T03:46:53.901120", "MEAN_MOTION": 13.73216093, "ECCENTRICITY": 0.0030148, "INCLINATION": 82.9341, "RA_OF_ASC_NODE": 350.4345, "ARG_OF_PERICENTER": 290.5381, "MEAN_ANOMALY": 137.2839, "EPHEMERIS_TYPE": 0, "CLASSIFICATION_TYPE": "U", "NORAD_CAT_ID": 25590, "ELEMENT_SET_NO": 999, "REV_AT_EPOCH": 34993, "BSTAR": 9.2889e-05, "MEAN_MOTION_DOT": 1.01e-06, "MEAN_MOTION_DDOT": 0}, "tle": {"line1": "1 25590U 98076A   25338.15756830  .00000101  00000+0  92889-4 0  9998", "line2": "2 25590  82.9341 350.4345 0030148 290.5381 137.2839 13.73216093349934"}}, "geometry": {"type": "Point", "coordinates": [50.453190393225256, 81.86888744146326]}}, {"type": "Feature", "properties": {"norad_id": 26818, "name": "COSMOS 2378", "group": "musson", "lat": 48.86925537690574, "lon": 177.6980122302474, "alt_km": 983.5158528497477, "timestamp": "2025-12-04T10:51:50.375244+00:00", "meta": {"OBJECT_NAME": "COSMOS 2378", "OBJECT_ID": "2001-023A", "EPOCH": "2025-12-03T21:05:46.153824", "MEAN_MOTION": 13.74140869, "ECCENTRICITY": 0.00319386, "INCLINATION": 82.9279, "RA_OF_ASC_NODE": 6.2953, "ARG_OF_PERICENTER": 230.1645, "MEAN_ANOMALY": 304.508, "EPHEMERIS_TYPE": 0, "CLASSIFICATION_TYPE": "U", "NORAD_CAT_ID": 26818, "ELEMENT_SET_NO": 999, "REV_AT_EPOCH": 22801, "BSTAR": 9.0272101e-05, "MEAN_MOTION_DOT": 1e-06, "MEAN_MOTION_DDOT": 0}, "tle": {"line1": "1 26818U 01023A   25337.87900641  .00000100  00000+0  90272-4 0  9990", "line2": "2 26818  82.9279   6.2953 0031938 230.1645 304.5080 13.74140869228010"}}, "geometry": {"type": "Point", "coordinates": [177.6980122302474, 48.86925537690574]}}, {"type": "Feature", "properties": {"norad_id": 27436, "name": "COSMOS 2389", "group": "musson", "lat": -52.20634142801707, "lon": -56.062174648348055, "alt_km": 1013.2579214198204, "timestamp": "2025-12-04T10:51:50.375277+00:00", "meta": {"OBJECT_NAME": "COSMOS 2389", "OBJECT_ID": "2002-026A", "EPOCH": "2025-12-04T04:11:21.412896", "MEAN_MOTION": 13.75153276, "ECCENTRICITY": 0.0047769, "INCLINATION": 82.9495, "RA_OF_ASC_NODE": 313.3262, "ARG_OF_PERICENTER": 84.0076, "MEAN_ANOMALY": 287.6394, "EPHEMERIS_TYPE": 0, "CLASSIFICATION_TYPE": "U", "NORAD_CAT_ID": 27436, "ELEMENT_SET_NO": 999, "REV_AT_EPOCH": 18031, "BSTAR": 7.5098e-05, "MEAN_MOTION_DOT": 8.8e-07, "MEAN_MOTION_DDOT": 0}, "tle": {"line1": "1 27436U 02026A   25338.17455339  .00000088  00000+0  75098-4 0  9998", "line2": "2 27436  82.9495 313.3262 0047769  84.0076 287.6394 13.75153276180311"}}, "geometry": {"type": "Point", "coordinates": [-56.062174648348055, -52.20634142801707]}}, {"type": "Feature", "properties": {"norad_id": 27818, "name": "COSMOS 2398", "group": "musson", "lat": -17.30498824589824, "lon": -83.40478417285583, "alt_km": 1016.7130202977705, "timestamp": "2025-12-04T10:51:50.375292+00:00", "meta": {"OBJECT_NAME": "COSMOS 2398", "OBJECT_ID": "2003-023A", "EPOCH": "2025-12-03T21:12:51.292800", "MEAN_MOTION": 13.72384416, "ECCENTRICITY": 0.00322443, "INCLINATION": 82.9476, "RA_OF_ASC_NODE": 279.2246, "ARG_OF_PERICENTER": 135.5715, "MEAN_ANOMALY": 278.9534, "EPHEMERIS_TYPE": 0, "CLASSIFICATION_TYPE": "U", "NORAD_CAT_ID": 27818, "ELEMENT_SET_NO": 999, "REV_AT_EPOCH": 12695, "BSTAR": 5.941652e-05, "MEAN_MOTION_DOT": 7e-07, "MEAN_MOTION_DDOT": 0}, "tle": {"line1": "1 27818U 03023A   25337.88392700  .00000070  00000+0  59417-4 0  9997", "line2": "2 27818  82.9476 279.2246 0032244 135.5715 278.9534 13.72384416126958"}}, "geometry": {"type": "Point", "coordinates": [-83.40478417285583, -17.30498824589824]}}, {"type": "Feature", "properties": {"norad_id": 28380, "name": "COSMOS 2407", "group": "musson", "lat": 60.5972164217895, "lon": -128.30821866047555, "alt_km": 942.4218063146445, "timestamp": "2025-12-04T10:51:50.375303+00:00", "meta": {"OBJECT_NAME": "COSMOS 2407", "OBJECT_ID": "2004-028A", "EPOCH": "2025-12-03T19:12:08.773920", "MEAN_MOTION": 13.76312141, "ECCENTRICITY": 0.00405254, "INCLINATION": 82.9613, "RA_OF_ASC_NODE": 219.5109, "ARG_OF_PERICENTER": 79.0926, "MEAN_ANOMALY": 351.011, "EPHEMERIS_TYPE": 0, "CLASSIFICATION_TYPE": "U", "NORAD_CAT_ID": 28380, "ELEMENT_SET_NO": 999, "REV_AT_EPOCH": 7300, "BSTAR": 9.9856988e-05, "MEAN_MOTION_DOT": 1.14e-06, "MEAN_MOTION_DDOT": 0}, "tle": {"line1": "1 28380U 04028A   25337.80010155  .00000114  00000+0  99857-4 0  9992", "line2": "2 28380  82.9613 219.5109 0040525  79.0926 351.0110 13.76312141 73008"}}, "geometry": {"type": "Point", "coordinates": [-128.30821866047555, 60.5972164217895]}}, {"type": "Feature", "properties": {"norad_id": 28521, "name": "COSMOS 2414", "group": "musson", "lat": -20.212838447476358, "lon": -171.68546423709506, "alt_km": 970.6055844785024, "timestamp": "2025-12-04T10:51:50.375314+00:00", "meta": {"OBJECT_NAME": "COSMOS 2414", "OBJECT_ID": "2005-002A", "EPOCH": "2025-12-03T17:39:37.668096", "MEAN_MOTION": 13.87901131, "ECCENTRICITY": 0.00403428, "INCLINATION": 82.9499, "RA_OF_ASC_NODE": 191.468, "ARG_OF_PERICENTER": 164.9748, "MEAN_ANOMALY": 195.2625, "EPHEMERIS_TYPE": 0, "CLASSIFICATION_TYPE": "U", "NORAD_CAT_ID": 28521, "ELEMENT_SET_NO": 999, "REV_AT_EPOCH": 5670, "BSTAR": 9.3001106e-05, "MEAN_MOTION_DOT": 1.27e-06, "MEAN_MOTION_DDOT": 0}, "tle": {"line1": "1 28521U 05002A   25337.73585264  .00000127  00000+0  93001-4 0  9991", "line2": "2 28521  82.9499 191.4680 0040342 164.9748 195.2625 13.87901131 56704"}}, "geometry": {"type": "Point", "coordinates": [-171.68546423709506, -20.212838447476358]}}, {"type": "Feature", "properties": {"norad_id": 32052, "name": "COSMOS 2429", "group": "musson", "lat": 45.34031231106119, "lon": 162.25654799879166, "alt_km": 968.9603640898977, "timestamp": "2025-12-04T10:51:50.375324+00:00", "meta": {"OBJECT_NAME": "COSMOS 2429", "OBJECT_ID": "2007-038A", "EPOCH": "2025-12-04T01:29:11.909760", "MEAN_MOTION": 13.75148154, "ECCENTRICITY": 0.0039603, "INCLINATION": 82.9805, "RA_OF_ASC_NODE": 349.7066, "ARG_OF_PERICENTER": 61.4656, "MEAN_ANOMALY": 299.0478, "EPHEMERIS_TYPE": 0, "CLASSIFICATION_TYPE": "U", "NORAD_CAT_ID": 32052, "ELEMENT_SET_NO": 999, "REV_AT_EPOCH": 91483, "BSTAR": 7.8335e-05, "MEAN_MOTION_DOT": 9.1e-07, "MEAN_MOTION_DDOT": 0}, "tle": {"line1": "1 32052U 07038A   25338.06194340  .00000091  00000+0  78335-4 0  9997", "line2": "2 32052  82.9805 349.7066 0039603  61.4656 299.0478 13.75148154914833"}}, "geometry": {"type": "Point", "coordinates": [162.25654799879166, 45.34031231106119]}}, {"type": "Feature", "properties": {"norad_id": 35635, "name": "COSMOS 2454", "group": "musson", "lat": -30.47178676658414, "lon": 170.75477011575262, "alt_km": 943.7009302592896, "timestamp": "2025-12-04T10:51:50.375335+00:00", "meta": {"OBJECT_NAME": "COSMOS 2454", "OBJECT_ID": "2009-039A", "EPOCH": "2025-12-04T01:28:26.193792", "MEAN_MOTION": 13.89927029, "ECCENTRICITY": 0.0020486, "INCLINATION": 82.9557, "RA_OF_ASC_NODE": 175.2234, "ARG_OF_PERICENTER": 96.933, "MEAN_ANOMALY": 76.0293, "EPHEMERIS_TYPE": 0, "CLASSIFICATION_TYPE": "U", "NORAD_CAT_ID": 35635, "ELEMENT_SET_NO": 999, "REV_AT_EPOCH": 83029, "BSTAR": 9.3342e-05, "MEAN_MOTION_DOT": 1.31e-06, "MEAN_MOTION_DDOT": 0}, "tle": {"line1": "1 35635U 09039A   25338.06141428  .00000131  00000+0  93342-4 0  9999", "line2": "2 35635  82.9557 175.2234 0020486  96.9330  76.0293 13.89927029830293"}}, "geometry": {"type": "Point", "coordinates": [170.75477011575262, -30.47178676658414]}}, {"type": "Feature", "properties": {"norad_id": 36519, "name": "COSMOS 2463", "group": "musson", "lat": -14.066511789384501, "lon": -145.42414456781773, "alt_km": 1010.1942407177758, "timestamp": "2025-12-04T10:51:50.375345+00:00", "meta": {"OBJECT_NAME": "COSMOS 2463", "OBJECT_ID": "2010-017A", "EPOCH": "2025-12-04T03:03:16.527168", "MEAN_MOTION": 13.71648053, "ECCENTRICITY": 0.0035096, "INCLINATION": 82.962, "RA_OF_ASC_NODE": 33.0411, "ARG_OF_PERICENTER": 312.7614, "MEAN_ANOMALY": 75.7962, "EPHEMERIS_TYPE": 0, "CLASSIFICATION_TYPE": "U", "NORAD_CAT_ID": 36519, "ELEMENT_SET_NO": 999, "REV_AT_EPOCH": 78119, "BSTAR": 0.00010366, "MEAN_MOTION_DOT": 1.09e-06, "MEAN_MOTION_DDOT": 0}, "tle": {"line1": "1 36519U 10017A   25338.12727462  .00000109  00000+0  10366-3 0  9993", "line2": "2 36519  82.9620  33.0411 0035096 312.7614  75.7962 13.71648053781192"}}, "geometry": {"type": "Point", "coordinates": [-145.42414456781773, -14.066511789384501]}}]}